     3.04           N: GNSS NAV DATA    M: MIXED            RINEX VERSION / TYPE
ssrcrin-15.6.1x                         20250101 180000 UTC PGM / RUN BY / DATE 
    18                                                      LEAP SECONDS        
                                                            END OF HEADER       
C05 2025 01 01 18 00 00 1.739826984704E-04 2.859312786541E-11 0.000000000000E+00
     1.000000000000E+00 7.821718750000E+02 9.537540133972E-09 2.225224654247E+00
     2.571102231741E-05 1.271290355362E-03-1.595821231604E-06 6.493457181931E+03
     3.240000000000E+05-2.328306436539E-08 1.165367926755E+00 1.508742570877E-07
     7.503221247854E-02 5.098437500000E+01 2.409737941429E+00-8.474995874739E-09
     4.396611707954E-10 0.000000000000E+00 9.910000000000E+02 0.000000000000E+00
     2.000000000000E+00 0.000000000000E+00 2.000000000000E-10-9.500000000000E-09
     3.240276000000E+05 0.000000000000E+00
C60 2025 01 01 18 00 00 8.423812687397E-07 5.950795411991E-14 0.000000000000E+00
     1.000000000000E+00 7.399375000000E+02 1.168655822063E-08-3.113684596113E+00
     2.434616908431E-05 3.924337215722E-04-4.710629582405E-06 6.493445646286E+03
     3.240000000000E+05-4.223547875881E-07 1.240216730268E+00 4.069879651070E-07
     4.953558820179E-02 1.460000000000E+02 1.762957552201E+00-1.070294582065E-08
     5.810956335370E-10 0.000000000000E+00 9.910000000000E+02 0.000000000000E+00
     2.000000000000E+00 0.000000000000E+00 4.800000000000E-08 4.800000000000E-08
     3.240276000000E+05 1.000000000000E+00
C02 2025 01 01 18 00 00 6.957536097616E-04-2.305622359700E-11 0.000000000000E+00
     1.000000000000E+00 6.721250000000E+02 7.461739382825E-09 1.499212997816E+00
     2.217246219516E-05 8.207593346015E-04 8.381437510252E-06 6.493394540787E+03
     3.240000000000E+05-2.412125468254E-07 9.920583903683E-01 6.984919309616E-09
     8.261503914513E-02-2.528437500000E+02-2.534080691181E+00-6.539200955396E-09
     5.646663777640E-10 0.000000000000E+00 9.910000000000E+02 0.000000000000E+00
     2.000000000000E+00 0.000000000000E+00 1.700000000000E-09-1.380000000000E-08
     3.240276000000E+05 0.000000000000E+00
S36 2025 01 01 17 59 28 0.000000000000E+00 0.000000000000E+00 3.240500000000E+05
     4.200368800000E+04 0.000000000000E+00 0.000000000000E+00 6.300000000000E+01
     3.674846960000E+03 0.000000000000E+00 0.000000000000E+00 3.276700000000E+04
     0.000000000000E+00 0.000000000000E+00 0.000000000000E+00 6.500000000000E+01
E27 2025 01 01 17 50 00-5.450507160276E-04-9.890754881781E-12 0.000000000000E+00
     3.100000000000E+01-2.106250000000E+01 3.515860735426E-09 2.070125463595E+00
    -9.685754776001E-07 3.202408552170E-04 6.301328539848E-06 5.440604471207E+03
     3.234000000000E+05-5.960464477539E-08 2.413486025323E+00 4.284083843231E-08
     9.641985067837E-01 2.073750000000E+02 5.556943302594E-01-5.539873615115E-09
    -5.596661694853E-10 5.170000000000E+02 2.347000000000E+03
     3.120000000000E+00 0.000000000000E+00-2.328306436539E-10 2.328306436539E-10
     3.240650000000E+05
E23 2025 01 01 17 50 00 8.344650268555E-06-2.700062395888E-13 0.000000000000E+00
     3.100000000000E+01-1.659375000000E+01 3.545504827365E-09-5.623204787222E-01
    -6.519258022308E-07 3.606955287978E-04 6.254762411118E-06 5.440605817795E+03
     3.234000000000E+05 6.332993507385E-08 2.409493157199E+00 2.048909664154E-08
     9.661080025505E-01 2.080625000000E+02 1.612220651599E+00-5.555231397686E-09
    -5.321650239522E-10 5.170000000000E+02 2.347000000000E+03
     3.120000000000E+00 3.900000000000E+02-6.984919309616E-10 1.164153218269E-09
     3.240650000000E+05
E21 2025 01 01 17 50 00-6.376148667186E-04-2.245315045002E-12 0.000000000000E+00
     3.100000000000E+01-2.034375000000E+01 3.564077029543E-09 7.984195035942E-01
    -8.903443813324E-07 2.548983320594E-04 6.433576345444E-06 5.440603549957E+03
     3.234000000000E+05-1.303851604462E-08 2.413513620347E+00 4.097819328308E-08
     9.642266723455E-01 2.043437500000E+02 1.029671793095E+00-5.535230564571E-09
    -5.203788187237E-10 5.170000000000E+02 2.347000000000E+03
     3.120000000000E+00 0.000000000000E+00 0.000000000000E+00 6.984919309616E-10
     3.240650000000E+05
S23 2025 01 01 18 01 04 0.000000000000E+00 0.000000000000E+00 3.240700000000E+05
     3.866796400000E+04 0.000000000000E+00 0.000000000000E+00 6.300000000000E+01
     1.681330800000E+04 0.000000000000E+00 0.000000000000E+00 3.276700000000E+04
     0.000000000000E+00 0.000000000000E+00 0.000000000000E+00 2.460000000000E+02
S36 2025 01 01 18 01 52 0.000000000000E+00 0.000000000000E+00 3.241260000000E+05
     4.200368800000E+04 0.000000000000E+00 0.000000000000E+00 6.300000000000E+01
     3.674846960000E+03 0.000000000000E+00 0.000000000000E+00 3.276700000000E+04
     0.000000000000E+00 0.000000000000E+00 0.000000000000E+00 6.600000000000E+01
E21 2025 01 01 17 50 00-6.376159726642E-04-2.259525899717E-12 0.000000000000E+00
     3.100000000000E+01-2.034375000000E+01 3.564077029543E-09 7.984195035942E-01
    -8.903443813324E-07 2.548983320594E-04 6.433576345444E-06 5.440603549957E+03
     3.234000000000E+05-1.303851604462E-08 2.413513620347E+00 4.097819328308E-08
     9.642266723455E-01 2.043437500000E+02 1.029671793095E+00-5.535230564571E-09
    -5.203788187237E-10 2.580000000000E+02 2.347000000000E+03
     3.120000000000E+00 0.000000000000E+00 0.000000000000E+00 0.000000000000E+00
     3.241400000000E+05
E27 2025 01 01 17 50 00-5.450518801808E-04-9.890754881781E-12 0.000000000000E+00
     3.100000000000E+01-2.106250000000E+01 3.515860735426E-09 2.070125463595E+00
    -9.685754776001E-07 3.202408552170E-04 6.301328539848E-06 5.440604471207E+03
     3.234000000000E+05-5.960464477539E-08 2.413486025323E+00 4.284083843231E-08
     9.641985067837E-01 2.073750000000E+02 5.556943302594E-01-5.539873615115E-09
    -5.596661694853E-10 2.580000000000E+02 2.347000000000E+03
     3.120000000000E+00 0.000000000000E+00-2.328306436539E-10 0.000000000000E+00
     3.241400000000E+05
E23 2025 01 01 17 50 00 8.342380169779E-06-2.557953848736E-13 0.000000000000E+00
     3.100000000000E+01-1.659375000000E+01 3.545504827365E-09-5.623204787222E-01
    -6.519258022308E-07 3.606955287978E-04 6.254762411118E-06 5.440605817795E+03
     3.234000000000E+05 6.332993507385E-08 2.409493157199E+00 2.048909664154E-08
     9.661080025505E-01 2.080625000000E+02 1.612220651599E+00-5.555231397686E-09
    -5.321650239522E-10 2.580000000000E+02 2.347000000000E+03
     3.120000000000E+00 4.800000000000E+01-6.984919309616E-10 0.000000000000E+00
     3.241400000000E+05
S44 2025 01 01 18 02 40 8.419156074524E-07 0.000000000000E+00 3.241520000000E+05
     7.327188800000E+03 5.912500000000E-04-2.125000000000E-07 6.300000000000E+01
     4.150892552000E+04-3.262500000000E-03 7.500000000000E-08 3.276700000000E+04
     1.597117200000E+03 7.855600000000E-02-4.187500000000E-06 6.000000000000E+01
S21 2025 01 01 18 02 56 0.000000000000E+00 0.000000000000E+00 3.241900000000E+05
     4.200468400000E+04 0.000000000000E+00 0.000000000000E+00 6.300000000000E+01
    -3.674932960000E+03 0.000000000000E+00 0.000000000000E+00 3.276700000000E+04
     0.000000000000E+00 0.000000000000E+00 0.000000000000E+00 2.450000000000E+02
S23 2025 01 01 18 03 12 0.000000000000E+00 0.000000000000E+00 3.241920000000E+05
     3.866796400000E+04 0.000000000000E+00 0.000000000000E+00 6.300000000000E+01
     1.681330800000E+04 0.000000000000E+00 0.000000000000E+00 3.276700000000E+04
     0.000000000000E+00 0.000000000000E+00 0.000000000000E+00 2.470000000000E+02
E34 2025 01 01 17 50 00-1.551366876811E-04-2.216893335572E-12 0.000000000000E+00
     3.100000000000E+01 1.685937500000E+02 2.564392531528E-09-2.016504812708E+00
     7.776543498039E-06 1.885665114969E-04 1.773238182068E-06 5.440609781265E+03
     3.234000000000E+05 1.862645149231E-09-1.777839140491E+00-1.117587089539E-08
     9.995155626123E-01 3.235312500000E+02-2.156506938941E+00-5.594518748447E-09
     1.917937032633E-10 5.170000000000E+02 2.347000000000E+03
     3.120000000000E+00 0.000000000000E+00 2.328306436539E-09 3.725290298462E-09
     3.242150000000E+05
S27 2025 01 01 18 04 48 0.000000000000E+00 0.000000000000E+00 3.242620000000E+05
     2.413260600000E+04 4.849375000000E-03 2.500000000000E-08 6.300000000000E+01
     3.461652680000E+04-1.870625000000E-03-2.625000000000E-07 3.276700000000E+04
    -1.846508000000E+02 3.872800000000E-02 9.375000000000E-07 2.520000000000E+02
S28 2025 01 01 18 04 48 2.328306436539E-09 1.364242052659E-11 3.242620000000E+05
     5.117938240000E+03 2.630000000000E-03-5.000000000000E-08 3.100000000000E+01
     4.187304960000E+04-5.968750000000E-04-6.250000000000E-08 4.096000000000E+03
     1.206440000000E+01-1.428000000000E-03-6.250000000000E-08 2.520000000000E+02
S44 2025 01 01 18 04 48 8.419156074524E-07 0.000000000000E+00 3.242720000000E+05
     7.327260880000E+03 5.356250000000E-04-2.125000000000E-07 6.300000000000E+01
     4.150850936000E+04-3.239375000000E-03 8.750000000000E-08 3.276700000000E+04
     1.607102800000E+03 7.746800000000E-02-4.250000000000E-06 6.000000000000E+01
E09 2025 01 01 17 50 00-7.219944382086E-04-1.416822215106E-11 0.000000000000E+00
     3.100000000000E+01-1.815000000000E+02 2.532962650919E-09 1.278252907542E+00
    -8.480623364449E-06 1.942748203874E-04 1.144222915173E-05 5.440622814178E+03
     3.234000000000E+05 2.793967723846E-08 3.140106185455E-01-1.676380634308E-08
     9.694594995938E-01 9.521875000000E+01 3.166724769883E-01-5.199859452161E-09
     2.850118718885E-10 5.170000000000E+02 2.347000000000E+03
     3.120000000000E+00 0.000000000000E+00-4.656612873077E-10 2.328306436539E-10
     3.242750000000E+05
S36 2025 01 01 18 04 32 0.000000000000E+00 0.000000000000E+00 3.242820000000E+05
     4.200368800000E+04 0.000000000000E+00 0.000000000000E+00 6.300000000000E+01
     3.674846960000E+03 0.000000000000E+00 0.000000000000E+00 3.276700000000E+04
     0.000000000000E+00 0.000000000000E+00 0.000000000000E+00 6.700000000000E+01
